{"fetched_at":"2026-07-23T07:06:01.085Z","source":"https://celestrak.org/NORAD/elements/gp.php?NAME=SENTINEL&FORMAT=JSON","constellation":"sentinel-3","records":[{"OBJECT_NAME":"SENTINEL-3A","OBJECT_ID":"2016-011A","EPOCH":"2026-07-22T21:54:12.540960","CLASSIFICATION_TYPE":"U","MEAN_MOTION":14.2673583,"ECCENTRICITY":0.00012997,"INCLINATION":98.6231,"RA_OF_ASC_NODE":270.7797,"ARG_OF_PERICENTER":87.0308,"MEAN_ANOMALY":273.1021,"EPHEMERIS_TYPE":0,"NORAD_CAT_ID":41335,"ELEMENT_SET_NO":999,"REV_AT_EPOCH":54315,"BSTAR":0.000043919799,"MEAN_MOTION_DOT":6.3e-7,"MEAN_MOTION_DDOT":0},{"OBJECT_NAME":"SENTINEL-3B","OBJECT_ID":"2018-039A","EPOCH":"2026-07-22T16:12:35.716032","CLASSIFICATION_TYPE":"U","MEAN_MOTION":14.267379,"ECCENTRICITY":0.00012991,"INCLINATION":98.6229,"RA_OF_ASC_NODE":270.6951,"ARG_OF_PERICENTER":118.4511,"MEAN_ANOMALY":241.68,"EPHEMERIS_TYPE":0,"NORAD_CAT_ID":43437,"ELEMENT_SET_NO":999,"REV_AT_EPOCH":42918,"BSTAR":0.000044504417,"MEAN_MOTION_DOT":6.4e-7,"MEAN_MOTION_DDOT":0}]}
